{
  "type": "FeatureCollection",
  "features": [
    {
      "type": "Feature",
      "properties": {
        "norad_id": 31264,
        "name": "FENGYUN 1C DEB",
        "group": "fengyun-1c-debris",
        "lat": -61.899437193748795,
        "lon": -109.50680338891598,
        "alt_km": 837.1592855553008,
        "timestamp": "2025-12-02T07:10:09.396729+00:00",
        "meta_object_name": "FENGYUN 1C DEB",
        "meta_object_id": "1999-025BMW",
        "meta_epoch": "2025-12-01T05:06:33.713280",
        "meta_mean_motion": 14.18546807,
        "meta_eccentricity": 0.0001396,
        "meta_inclination": 99.1144,
        "meta_ra_of_asc_node": 231.8817,
        "meta_arg_of_pericenter": 16.6458,
        "meta_mean_anomaly": 138.117,
        "meta_ephemeris_type": 0,
        "meta_classification_type": "U",
        "meta_norad_cat_id": 31264,
        "meta_element_set_no": 999,
        "meta_rev_at_epoch": 96265,
        "meta_bstar": 0.00068846,
        "meta_mean_motion_dot": 1.378e-05,
        "meta_mean_motion_ddot": 0,
        "tle_line1": "1 31264U 99025BMW 25335.21289020  .00001378  00000+0  68846-3 0  9996",
        "tle_line2": "2 31264  99.1144 231.8817 0001396  16.6458 138.1170 14.18546807962658"
      },
      "geometry": {
        "type": "Point",
        "coordinates": [
          -109.50680338891598,
          -61.899437193748795
        ]
      }
    },
    {
      "type": "Feature",
      "properties": {
        "norad_id": 31266,
        "name": "FENGYUN 1C DEB",
        "group": "fengyun-1c-debris",
        "lat": -6.677143843085029,
        "lon": 137.71768728080573,
        "alt_km": 877.4677130309537,
        "timestamp": "2025-12-02T07:10:09.396739+00:00",
        "meta_object_name": "FENGYUN 1C DEB",
        "meta_object_id": "1999-025BMY",
        "meta_epoch": "2025-12-01T05:02:33.052992",
        "meta_mean_motion": 14.22301586,
        "meta_eccentricity": 0.0130043,
        "meta_inclination": 99.2559,
        "meta_ra_of_asc_node": 317.669,
        "meta_arg_of_pericenter": 317.2161,
        "meta_mean_anomaly": 59.6934,
        "meta_ephemeris_type": 0,
        "meta_classification_type": "U",
        "meta_norad_cat_id": 31266,
        "meta_element_set_no": 999,
        "meta_rev_at_epoch": 97042,
        "meta_bstar": 0.00043601,
        "meta_mean_motion_dot": 1.007e-05,
        "meta_mean_motion_ddot": 0,
        "tle_line1": "1 31266U 99025BMY 25335.21010478  .00001007  00000+0  43601-3 0  9998",
        "tle_line2": "2 31266  99.2559 317.6690 0130043 317.2161  59.6934 14.22301586970423"
      },
      "geometry": {
        "type": "Point",
        "coordinates": [
          137.71768728080573,
          -6.677143843085029
        ]
      }
    },
    {
      "type": "Feature",
      "properties": {
        "norad_id": 31268,
        "name": "FENGYUN 1C DEB",
        "group": "fengyun-1c-debris",
        "lat": -30.22626137024073,
        "lon": -166.3062880455196,
        "alt_km": 841.9786190469595,
        "timestamp": "2025-12-02T07:10:09.396749+00:00",
        "meta_object_name": "FENGYUN 1C DEB",
        "meta_object_id": "1999-025BNA",
        "meta_epoch": "2025-11-30T20:01:13.105344",
        "meta_mean_motion": 14.06369123,
        "meta_eccentricity": 0.00492969,
        "meta_inclination": 98.7575,
        "meta_ra_of_asc_node": 17.4295,
        "meta_arg_of_pericenter": 216.6529,
        "meta_mean_anomaly": 143.1264,
        "meta_ephemeris_type": 0,
        "meta_classification_type": "U",
        "meta_norad_cat_id": 31268,
        "meta_element_set_no": 999,
        "meta_rev_at_epoch": 61865,
        "meta_bstar": 0.00085236082,
        "meta_mean_motion_dot": 1.38e-05,
        "meta_mean_motion_ddot": 0,
        "tle_line1": "1 31268U 99025BNA 25334.83417946  .00001380  00000+0  85236-3 0  9992",
        "tle_line2": "2 31268  98.7575  17.4295 0049296 216.6529 143.1264 14.06369123618654"
      },
      "geometry": {
        "type": "Point",
        "coordinates": [
          -166.3062880455196,
          -30.22626137024073
        ]
      }
    },
    {
      "type": "Feature",
      "properties": {
        "norad_id": 31269,
        "name": "FENGYUN 1C DEB",
        "group": "fengyun-1c-debris",
        "lat": 9.870749169495493,
        "lon": -146.67187336156462,
        "alt_km": 666.7802704892229,
        "timestamp": "2025-12-02T07:10:09.396760+00:00",
        "meta_object_name": "FENGYUN 1C DEB",
        "meta_object_id": "1999-025BNB",
        "meta_epoch": "2025-12-01T14:37:09.757344",
        "meta_mean_motion": 14.43308923,
        "meta_eccentricity": 0.02421711,
        "meta_inclination": 98.1814,
        "meta_ra_of_asc_node": 214.0994,
        "meta_arg_of_pericenter": 309.4588,
        "meta_mean_anomaly": 77.2687,
        "meta_ephemeris_type": 0,
        "meta_classification_type": "U",
        "meta_norad_cat_id": 31269,
        "meta_element_set_no": 999,
        "meta_rev_at_epoch": 96326,
        "meta_bstar": 0.0024793316,
        "meta_mean_motion_dot": 0.00011897,
        "meta_mean_motion_ddot": 0,
        "tle_line1": "1 31269U 99025BNB 25335.60914071  .00011897  00000+0  24793-2 0  9994",
        "tle_line2": "2 31269  98.1814 214.0994 0242171 309.4588  77.2687 14.43308923963267"
      },
      "geometry": {
        "type": "Point",
        "coordinates": [
          -146.67187336156462,
          9.870749169495493
        ]
      }
    },
    {
      "type": "Feature",
      "properties": {
        "norad_id": 31272,
        "name": "FENGYUN 1C DEB",
        "group": "fengyun-1c-debris",
        "lat": -38.289281226976904,
        "lon": 20.49982348847095,
        "alt_km": 802.8766705139124,
        "timestamp": "2025-12-02T07:10:09.396770+00:00",
        "meta_object_name": "FENGYUN 1C DEB",
        "meta_object_id": "1999-025BNE",
        "meta_epoch": "2025-12-01T14:57:50.979744",
        "meta_mean_motion": 14.22879734,
        "meta_eccentricity": 0.01063412,
        "meta_inclination": 99.0924,
        "meta_ra_of_asc_node": 207.0659,
        "meta_arg_of_pericenter": 144.5799,
        "meta_mean_anomaly": 216.2501,
        "meta_ephemeris_type": 0,
        "meta_classification_type": "U",
        "meta_norad_cat_id": 31272,
        "meta_element_set_no": 999,
        "meta_rev_at_epoch": 96831,
        "meta_bstar": 0.00049947514,
        "meta_mean_motion_dot": 1.143e-05,
        "meta_mean_motion_ddot": 0,
        "tle_line1": "1 31272U 99025BNE 25335.62350671  .00001143  00000+0  49948-3 0  9993",
        "tle_line2": "2 31272  99.0924 207.0659 0106341 144.5799 216.2501 14.22879734968314"
      },
      "geometry": {
        "type": "Point",
        "coordinates": [
          20.49982348847095,
          -38.289281226976904
        ]
      }
    },
    {
      "type": "Feature",
      "properties": {
        "norad_id": 31274,
        "name": "FENGYUN 1C DEB",
        "group": "fengyun-1c-debris",
        "lat": 4.501594440242334,
        "lon": 155.34799960051447,
        "alt_km": 1065.4431539907673,
        "timestamp": "2025-12-02T07:10:09.396780+00:00",
        "meta_object_name": "FENGYUN 1C DEB",
        "meta_object_id": "1999-025BNG",
        "meta_epoch": "2025-11-25T07:02:06.183168",
        "meta_mean_motion": 13.85559095,
        "meta_eccentricity": 0.02393814,
        "meta_inclination": 99.0043,
        "meta_ra_of_asc_node": 149.3267,
        "meta_arg_of_pericenter": 157.3587,
        "meta_mean_anomaly": 203.8344,
        "meta_ephemeris_type": 0,
        "meta_classification_type": "U",
        "meta_norad_cat_id": 31274,
        "meta_element_set_no": 999,
        "meta_rev_at_epoch": 93965,
        "meta_bstar": 0.0016108438,
        "meta_mean_motion_dot": 2.26e-05,
        "meta_mean_motion_ddot": 0,
        "tle_line1": "1 31274U 99025BNG 25329.29312712  .00002260  00000+0  16108-2 0  9997",
        "tle_line2": "2 31274  99.0043 149.3267 0239381 157.3587 203.8344 13.85559095939654"
      },
      "geometry": {
        "type": "Point",
        "coordinates": [
          155.34799960051447,
          4.501594440242334
        ]
      }
    },
    {
      "type": "Feature",
      "properties": {
        "norad_id": 31275,
        "name": "FENGYUN 1C DEB",
        "group": "fengyun-1c-debris",
        "lat": -66.36904712237654,
        "lon": 40.931429536384115,
        "alt_km": 892.7092016094402,
        "timestamp": "2025-12-02T07:10:09.396790+00:00",
        "meta_object_name": "FENGYUN 1C DEB",
        "meta_object_id": "1999-025BNH",
        "meta_epoch": "2025-11-30T21:14:28.077216",
        "meta_mean_motion": 14.0227332,
        "meta_eccentricity": 0.01043579,
        "meta_inclination": 98.9488,
        "meta_ra_of_asc_node": 18.4354,
        "meta_arg_of_pericenter": 26.2208,
        "meta_mean_anomaly": 334.4189,
        "meta_ephemeris_type": 0,
        "meta_classification_type": "U",
        "meta_norad_cat_id": 31275,
        "meta_element_set_no": 999,
        "meta_rev_at_epoch": 95320,
        "meta_bstar": 0.00091657659,
        "meta_mean_motion_dot": 1.43e-05,
        "meta_mean_motion_ddot": 0,
        "tle_line1": "1 31275U 99025BNH 25334.88504719  .00001430  00000+0  91658-3 0  9991",
        "tle_line2": "2 31275  98.9488  18.4354 0104357  26.2208 334.4189 14.02273320953206"
      },
      "geometry": {
        "type": "Point",
        "coordinates": [
          40.931429536384115,
          -66.36904712237654
        ]
      }
    }
  ]
}